[{"OBJECT_NAME":"EDISON-1","OBJECT_ID":"2025-009B","EPOCH":"2026-03-09T19:16:13.822464","MEAN_MOTION":15.29042904,"ECCENTRICITY":0.00043285,"INCLINATION":97.4042,"RA_OF_ASC_NODE":151.6286,"ARG_OF_PERICENTER":306.4185,"MEAN_ANOMALY":53.6655,"EPHEMERIS_TYPE":0,"CLASSIFICATION_TYPE":"U","NORAD_CAT_ID":62610,"ELEMENT_SET_NO":999,"REV_AT_EPOCH":6375,"BSTAR":0.00052814963,"MEAN_MOTION_DOT":0.00014835,"MEAN_MOTION_DDOT":0},{"OBJECT_NAME":"STARLINK-36139","OBJECT_ID":"2025-288H","EPOCH":"2026-03-09T21:51:06.413760","MEAN_MOTION":15.27594149,"ECCENTRICITY":0.00010547,"INCLINATION":42.9977,"RA_OF_ASC_NODE":21.9907,"ARG_OF_PERICENTER":176.7824,"MEAN_ANOMALY":183.3035,"EPHEMERIS_TYPE":0,"CLASSIFICATION_TYPE":"U","NORAD_CAT_ID":66966,"ELEMENT_SET_NO":999,"REV_AT_EPOCH":1532,"BSTAR":0.0010077244,"MEAN_MOTION_DOT":0.00027584,"MEAN_MOTION_DDOT":0}]
